SPAWAR-CAL-R            
1 43776U 18099U   26067.65115975  .00003570  00000+0  25336-3 0  9990
2 43776  97.4524 111.5817 0019701 348.9052  11.1737 15.05212097396878
STARLINK-4424           
1 53681U 22105AK  26068.65978250  .00000306  00000+0  28372-4 0  9991
2 53681  97.6020 310.1899 0001797  58.5581 301.5819 15.01262800193236
